COSMOS 2433 (720)       
1 32275C 07052A   22126.99979167 -.00000000  00000-0  00000-0 0  1266
2 32275  66.0825   6.0458 0000832 293.8904 205.0029  2.13104393    14
COSMOS 2432 (719)       
1 32276C 07052B   22126.99979167 -.00000000  00000-0  00000-0 0  1267
2 32276  66.0960   6.1459 0010403 340.1960 107.1382  2.13103654    13
COSMOS 2434 (721)       
1 32393C 07065A   22126.99979167  .00000000  00000-0  00000-0 0  1260
2 32393  64.3918 242.8410 0003073  92.9046 295.4039  2.13103259    16
COSMOS 2436 (723)       
1 32395C 07065C   22126.99979167  .00000000  00000-0  00000-0 0  1262
2 32395  64.4006 242.8977 0015025   1.7536 162.4601  2.13103035    17
COSMOS 2456 (730)       
1 36111C 09070A   22126.99979167 -.00000000  00000-0  00000-0 0  1261
2 36111  64.3431 122.4781 0006308 303.9412 250.5141  2.13099480    14
COSMOS 2457 (733)       
1 36112C 09070B   22126.99979167 -.00000000  00000-0  00000-0 0  1262
2 36112  64.3263 122.3550 0004145 199.7921 121.6261  2.13101605    18
COSMOS 2461 (735)       
1 36401C 10007B   22126.99979167  .00000000  00000-0  00000-0 0  1264
2 36401  65.9687   4.8895 0021823  10.6184 345.7485  2.13103936    12
COSMOS 2460 (732)       
1 36402C 10007C   22126.99979167  .00000000  00000-0  00000-0 0  1265
2 36402  65.9555   4.8408 0002401  49.1499 255.2394  2.13106512    11
COSMOS 2476 (744)       
1 37867C 11064A   22126.99979167 -.00000000  00000-0  00000-0 0  1266
2 37867  64.6326 123.8182 0023124 241.8916 217.7251  2.13102054    12
COSMOS 2477 (745)       
1 37868C 11064B   22126.99979167 -.00000000  00000-0  00000-0 0  1267
2 37868  64.6403 123.8825 0020517 243.2578  34.4910  2.13101924    17
COSMOS 2475 (743)       
1 37869C 11064C   22126.99979167 -.00000000  00000-0  00000-0 0  1268
2 37869  64.6476 123.8903 0025144 259.1528 336.5611  2.13102218    18
COSMOS 2485 (747)       
1 39155C 13019A   22126.99979167 -.00000000  00000-0  00000-0 0  1260
2 39155  64.7967 124.2375 0023406 237.8915 266.1164  2.13102149    18
COSMOS 2492 (754)       
1 39620C 14012A   22126.99979167  .00000000  00000-0  00000-0 0  1260
2 39620  65.8422   4.5280 0013188 333.1187 205.4123  2.13103530    11
COSMOS 2500 (755)       
1 40001C 14032A   22126.99979167  .00000000  00000-0  00000-0 0  1267
2 40001  65.7818   4.3922 0004341 189.4831 207.8273  2.13102627    12
COSMOS 2501 (702K)      
1 40315C 14075A   22126.99979167  .00000000  00000-0  00000-0 0  1262
2 40315  63.6992 242.6216 0017921 207.7758 357.3108  2.13101555    10
COSMOS 2514 (751)       
1 41330C 16008A   22126.99979167  .00000000  00000-0  00000-0 0  1268
2 41330  65.5821   4.0944 0007900 207.7751  13.2886  2.13103077    19
COSMOS 2547 (705K)      
1 46805C 20075A   22126.99979167  .00000000  00000-0  00000-0 0  1269
2 46805  64.6691 242.8671 0006771 242.8711 235.2337  2.13103291    11
COSMOS 2522 (752)       
1 42939C 17055A   22126.99979167  .00000000  00000-0  00000-0 0  1267
2 42939  64.1588 243.2689 0007214 239.2284 101.2149  2.13102079    13
COSMOS 2527 (756)       
1 43508C 18053A   22126.99979167 -.00000000  00000-0  00000-0 0  1260
2 43508  64.9598 124.2291 0009706 243.8486 128.7085  2.13102665    19
COSMOS 2529 (757)       
1 43687C 18086A   22126.99979167  .00000000  00000-0  00000-0 0  1263
2 43687  64.3737 243.5740 0008991 265.8035  30.1585  2.13102308    14
COSMOS 2534 (758)       
1 44299C 19030A   22126.99979167  .00000000  00000-0  00000-0 0  1263
2 44299  64.4454 243.4549 0011611 287.3425 143.2181  2.13102152    17
COSMOS 2544 (759)       
1 44850C 19088A   22126.99979167 -.00000000  00000-0  00000-0 0  1260
2 44850  64.9449 124.0821 0014697 264.5988 151.4603  2.13102472    19
COSMOS 2545 (760)       
1 45358C 20018A   22126.99979167  .00000000  00000-0  00000-0 0  1268
2 45358  64.9194   4.7363 0006896 254.5858  11.0017  2.13102841    12
